[{"OBJECT_NAME":"YAOGAN-20 01C","OBJECT_ID":"2014-047C","EPOCH":"2026-03-09T23:32:29.762592","MEAN_MOTION":13.45441418,"ECCENTRICITY":0.03814224,"INCLINATION":63.3778,"RA_OF_ASC_NODE":275.4828,"ARG_OF_PERICENTER":14.5547,"MEAN_ANOMALY":346.6105,"EPHEMERIS_TYPE":0,"CLASSIFICATION_TYPE":"U","NORAD_CAT_ID":40111,"ELEMENT_SET_NO":999,"REV_AT_EPOCH":56894,"BSTAR":8.7194712e-5,"MEAN_MOTION_DOT":-1.1e-7,"MEAN_MOTION_DDOT":0},{"OBJECT_NAME":"CZ-6A DEB","OBJECT_ID":"2022-151RF","EPOCH":"2026-03-08T23:15:14.306976","MEAN_MOTION":14.20895621,"ECCENTRICITY":0.00285867,"INCLINATION":98.8205,"RA_OF_ASC_NODE":83.7162,"ARG_OF_PERICENTER":227.9,"MEAN_ANOMALY":131.9746,"EPHEMERIS_TYPE":0,"CLASSIFICATION_TYPE":"U","NORAD_CAT_ID":54918,"ELEMENT_SET_NO":999,"REV_AT_EPOCH":16808,"BSTAR":0.0014268493,"MEAN_MOTION_DOT":3.056e-5,"MEAN_MOTION_DDOT":0}]
